UBAKUSAT                
1 43467U 98067NQ  19289.47953350  .00016209  00000-0  16435-3 0  9999
2 43467  51.6354  92.2984 0002205 168.7023 191.4022 15.65400532 81627
BATSU-CS1 (IRAZU)       
1 43468U 98067NR  19288.85570222  .00048159  00000-0  30576-3 0  9995
2 43468  51.6354  81.2885 0001710 263.5451  96.5355 15.75995030181690
CUBERRT                 
1 43546U 98067NU  19288.84769768  .00008776  00000-0  86062-4 0  9999
2 43546  51.6363  94.8291 0003769 220.8598 139.2116 15.66974352 71661
TEMPEST-D               
1 43547U 98067NV  19288.99560363  .00004953  00000-0  68505-4 0  9991
2 43547  51.6368 107.8399 0005318 204.7270 155.3469 15.59122842 71189
RAINCUBE                
1 43548U 98067NW  19288.87546469  .00015324  00000-0  16416-3 0  9997
2 43548  51.6348 100.9977 0005248 221.5368 138.5228 15.64042887 71712
HALOSAT                 
1 43549U 98067NX  19289.39698150  .00014797  00000-0  15940-3 0  9995
2 43549  51.6361  98.5048 0004886 226.6959 133.3629 15.63934458 71359
ENDUROSAT ONE           
1 43551U 98067NZ  19289.47078651  .00021504  00000-0  20941-3 0  9996
2 43551  51.6354  94.4902 0005443 237.4729 122.5741 15.66182019 71821
EQUISAT                 
1 43552U 98067PA  19288.73494062  .00013909  00000-0  14829-3 0  9991
2 43552  51.6367 100.8681 0005742 230.6942 129.3544 15.64258706 71636
AEROCUBE 12A            
1 43556U 18046C   19289.20754375  .00000617  00000-0  34178-4 0  9995
2 43556  51.6422 203.2374 0008779 134.0125 226.1580 15.29007010 69849
AEROCUBE 12B            
1 43557U 18046D   19289.23232344  .00001630  00000-0  69901-4 0  9994
2 43557  51.6425 203.3972 0008755 134.6740 225.4954 15.28843613 69798
UITMSAT-1               
1 43589U 98067PD  19288.71941437  .00015950  00000-0  16623-3 0  9994
2 43589  51.6342 101.4292 0005132 238.4035 121.6460 15.64709699 67365
MAYA-1                  
1 43590U 98067PE  19288.71318588  .00016041  00000-0  16705-3 0  9994
2 43590  51.6337 101.3935 0005120 242.4080 117.6395 15.64723199 67291
BHUTAN-1                
1 43591U 98067PF  19289.46573253  .00018764  00000-0  19367-3 0  9991
2 43591  51.6358  97.4533 0005375 243.2927 116.7518 15.64816458 67417
SIRIUSSAT-1             
1 43595U 98067PG  19288.88108276  .00016424  00000-0  17729-3 0  9990
2 43595  51.6340 102.5169 0003526 198.5149 161.5718 15.63791939 66479
SIRIUSSAT-2             
1 43596U 98067PH  19288.79603505  .00015790  00000-0  17183-3 0  9995
2 43596  51.6353 103.4973 0004056 198.0154 162.0697 15.63617958 66455
TANUSHA-3               
1 43597U 98067PJ  19289.47986101  .00023334  00000-0  22772-3 0  9991
2 43597  51.6336  96.7277 0003581 219.6099 140.4635 15.66079841 66603
SURFSAT                 
1 43614U 18070B   19288.88255879  .00002712  00000-0  72607-4 0  9992
2 43614  93.0352  52.8959 0014834 196.6860 163.3907 15.37996147 60722
CP7 (DAVE)              
1 43615U 18070C   19288.83010497  .00002709  00000-0  72749-4 0  9996
2 43615  93.0356  52.8730 0014983 196.5264 163.5503 15.37899208 60719
ELFIN-B                 
1 43616U 18070D   19288.84851282  .00003644  00000-0  95222-4 0  9993
2 43616  93.0318  52.7873 0015606 200.3139 159.7496 15.38711044 60735
ELFIN-A                 
1 43617U 18070E   19289.29347798  .00004357  00000-0  11353-3 0  9990
2 43617  93.0371  53.2802 0015001 194.7992 165.2825 15.38796960 60801
CUBEBEL-1 (BSUSAT-1)    
1 43666U 18083E   19289.08954044  .00000699  00000-0  37896-4 0  9999
2 43666  97.5137 312.7238 0016222 129.7998 316.1804 15.17762939 53396
DEBRISSAT-2             
1 43680U 98067PR  19289.49988128  .00031429  00000-0  28273-3 0  9993
2 43680  51.6345  95.4069 0003582 237.7059 122.3591 15.67926420 75356
CICERO 10               
1 43690U 18088A   19288.93875823  .00000907  00000-0  40355-4 0  9997
2 43690  85.0386 239.9876 0016903 125.0521 235.2308 15.19812809 51466
IRVINE01                
1 43693U 18088D   19288.91518081  .00002003  00000-0  86094-4 0  9997
2 43693  85.0363 239.3534 0020607 111.2429 249.1017 15.21776452 51499
PROXIMA I               
1 43694U 18088E   19288.88145986  .00000935  00000-0  39455-4 0  9995
2 43694  85.0330 239.1727 0021742 104.3650 256.0007 15.21541626 51507
PROXIMA II              
1 43696U 18088G   19288.88022904  .00000943  00000-0  39771-4 0  9991
2 43696  85.0331 239.1751 0021774 104.3338 256.0323 15.21546047 51496
FACSAT-1                
1 43721U 18096C   19289.43931132  .00001217  00000-0  49249-4 0  9999
2 43721  97.4491 359.0576 0016227 267.2536  92.6846 15.26556697 49007
CENTAURI-2              
1 43722U 18096D   19288.74521421  .00001665  00000-0  65777-4 0  9990
2 43722  97.4496 358.4591 0016359 270.4568  89.4796 15.26842086 48894
INNOSAT-2               
1 43738U 18096V   19289.48686383  .00002241  00000-0  81526-4 0  9999
2 43738  97.4500   0.2291 0022532 278.3633  81.5052 15.29107812 49080
SIRION PATHFINDER-2     
1 43759U 18099B   19289.44669711 -.00000268  00000-0 -19131-4 0  9999
2 43759  97.7348 359.9001 0012909 282.4918  77.4858 14.95172889 47318
CORVUS-BC 4             
1 43767U 18099K   19288.89485542  .00000236  00000-0  27104-4 0  9996
2 43767  97.7335 359.0278 0010339 288.9318  71.0782 14.94616065 47224
MOVE-II                 
1 43780U 18099Y   19289.20086205  .00000598  00000-0  59654-4 0  9996
2 43780  97.7342 359.5602 0012220 295.1313  64.8639 14.95150089 47264
SPACEBEE-7              
1 43816U 18099BL  19288.85677725  .00000095  00000-0  13832-4 0  9999
2 43816  97.7358 359.4532 0012099 279.9103  80.0752 14.95485488 46789
SPACEBEE-5              
1 43817U 18099BM  19289.28932547  .00001345  00000-0  12560-3 0  9999
2 43817  97.7389   0.0226 0011672 277.9690  82.0206 14.95818937 46851
SPACEBEE-6              
1 43818U 18099BN  19289.24624146  .00000079  00000-0  12368-4 0  9999
2 43818  97.7368 359.8832 0012033 278.4915  81.4942 14.95592874 46999
SHIELDS 1               
1 43850U 18104B   19288.65196266  .00000041  00000-0  00000+0 0  9997
2 43850  85.0283 337.8396 0012441 251.8736 108.1272 15.21166796 46107
STF-1                   
1 43852U 18104D   19288.62556089  .00000040  00000-0  00000-0 0  9999
2 43852  85.0339 338.2004 0012309 268.2267  91.7579 15.20779206 46085
ZACUBE-2                
1 43907U 18111AH  19289.48524753  .00000561  00000-0  25710-4 0  9993
2 43907  97.2791 191.3657 0020048 290.5588  69.3499 15.24298312 44693
LUME 1                  
1 43908U 18111AJ  19289.39828953  .00001000  00000-0  43313-4 0  9991
2 43908  97.2791 191.3276 0019974 291.0742  68.8360 15.24529564 44681
AOBA VELOX-IV           
1 43940U 19003J   19289.11313405  .00001765  00000-0  74881-4 0  9991
2 43940  97.2655 343.4298 0024918  14.3654  39.3335 15.24136119 41279
CATSAT-2                
1 44029U 98067PV  19288.77670562  .00009106  00000-0  12358-3 0  9995
2 44029  51.6374 114.6507 0004556 227.3321 132.7288 15.58439907 40131
DELPHINI                
1 44030U 98067PW  19288.75819415  .00010158  00000-0  13590-3 0  9995
2 44030  51.6353 114.4999 0004517 224.0461 136.0172 15.58674030 40103
UNITE                   
1 44031U 98067PX  19288.82225222  .00006895  00000-0  10020-3 0  9999
2 44031  51.6377 115.6888 0003177 217.6081 142.4689 15.57039573 40095
TECHEDSAT 8             
1 44032U 98067PY  19289.11688216  .00038649  00000-0  38567-3 0  9997
2 44032  51.6352 107.1415 0003995 229.1973 130.8677 15.65238296 40211
CATSAT-1                
1 44033U 98067PZ  19288.77653967  .00008662  00000-0  11786-3 0  9990
2 44033  51.6374 114.6510 0004309 226.6816 133.3818 15.58445086 40048
RAAVANA-1               
1 44329U 98067QE  19288.79107483  .00007222  00000-0  11924-3 0  9992
2 44329  51.6388 121.4936 0007563 163.2114 196.9128 15.53398673 18768
UGUISU                  
1 44330U 98067QF  19288.79410950  .00007238  00000-0  11967-3 0  9994
2 44330  51.6388 121.5129 0007534 162.0500 198.0758 15.53354737 18742
NEPALISAT-1             
1 44331U 98067QG  19288.78837890  .00007159  00000-0  11812-3 0  9991
2 44331  51.6388 121.4756 0007654 164.6454 195.4770 15.53432403 18750
SPOOQY-1                
1 44332U 98067QH  19288.78578871  .00006924  00000-0  11443-3 0  9992
2 44332  51.6387 121.4565 0006363 165.6402 194.4770 15.53452836 18715
SPACEBEE-9              
1 44370U 19037F   19288.76834863  .00006709  00000-0  17208-3 0  9994
2 44370  45.0128  45.7883 0014916 186.2962 173.7736 15.40058685 16687
SPACEBEE-8              
1 44371U 19037G   19288.73698516  .00013140  00000-0  31788-3 0  9991
2 44371  45.0113  45.5565 0014649 188.5436 171.5199 15.41063225 16676
MOVE-IIB                
1 44398U 19038N   19289.69672304  .00001263  00000-0  77418-4 0  9998
2 44398  97.5011 249.6657 0023801 250.5262 109.3277 15.11763777 15592
SONATE                  
1 44400U 19038Q   19289.16644215  .00000518  00000-0  34073-4 0  9996
2 44400  97.5037 249.1589 0023795 249.5047 110.3629 15.11705716 15518
LUCKY-7                 
1 44406U 19038W   19289.15362831  .00000546  00000-0  35531-4 0  9993
2 44406  97.5035 249.1747 0023301 249.5853 110.2875 15.11905609 15500
BEESAT 9                
1 44412U 19038AC  19288.95816381  .00000794  00000-0  49971-4 0  9999
2 44412  97.5031 248.9729 0021351 256.5548 103.3303 15.11880584 15178
JAISAT-1                
1 44419U 19038F   19288.85851078  .00000689  00000-0  43318-4 0  9999
2 44419  97.5034 248.9539 0020161 256.6496 103.2487 15.12370389 15471
SWIATOWID               
1 44426U 98067QL  19289.09774483  .00011213  00000-0  18079-3 0  9997
2 44426  51.6413 120.3387 0005531 130.2609 327.9238 15.53432835 16281
KRAKSAT                 
1 44427U 98067QM  19288.84599717  .00005508  00000-0  95523-4 0  9995
2 44427  51.6402 121.8691 0004597 122.8437 237.2996 15.52563300 16286
VCC A                   
1 44428U 98067QN  19288.76384023  .00007008  00000-0  11783-3 0  9991
2 44428  51.6404 122.0720 0003904 139.9999 220.1279 15.52952632 16272
